ONEWEB-0349             
1 49281U 21090C   26025.27469845  .00000158  00000+0  35633-3 0  9992
2 49281  87.9229 302.9556 0001639  78.6131 281.5186 13.20772940210962
ONEWEB-0353             
1 49282U 21090D   26025.26151113  .00000126  00000+0  30456-3 0  9991
2 49282  87.9031 318.1910 0001583  68.7921 291.3378 13.14503487208805
ONEWEB-0356             
1 49283U 21090E   26025.27313619  .00002970  00000+0  72713-2 0  9994
2 49283  87.9233 302.9493 0002400  63.0825 297.0553 13.20758684210963
ONEWEB-0358             
1 49284U 21090F   26025.30310654  .00000018  00000+0  12723-4 0  9993
2 49284  87.9233 302.9448 0001816  79.8051 280.3288 13.20773571211693
ONEWEB-0359             
1 49285U 21090G   26025.29994910  .00000124  00000+0  27225-3 0  9995
2 49285  87.9228 302.9439 0001940  85.9831 274.1524 13.20773888211673
ONEWEB-0360             
1 49286U 21090H   26025.21471651  .00000107  00000+0  23174-3 0  9990
2 49286  87.9228 302.9677 0001715  80.8520 279.2808 13.20774281210978
ONEWEB-0361             
1 49287U 21090J   26025.27153558  .00000140  00000+0  31302-3 0  9999
2 49287  87.9227 302.9538 0001841  73.1386 286.9949 13.20774409211434
ONEWEB-0362             
1 49288U 21090K   26025.26257688  .00000071  00000+0  14576-3 0  9995
2 49288  87.9236 333.4259 0001592  85.8316 274.2999 13.19726954208060
